HAWK-7B                 
1 56193U 23054R   26196.14798686  .00003022  00000+0  11457-3 0  9998
2 56193  97.2690  81.0483 0001315  17.2698 342.8586 15.27630278181294
HAWK-7C                 
1 56200U 23054Y   26196.14786376  .00002936  00000+0  11138-3 0  9999
2 56200  97.2666  81.8085 0000929 355.9944   4.1288 15.27632872181297
HAWK-8A                 
1 59443U 24066B   26196.16491075  .00000630  00000+0  69522-4 0  9996
2 59443  45.5953 131.9733 0002968 218.9645 141.1022 14.99286735124030
HAWK-8B                 
1 59445U 24066D   26194.89936811  .00000303  00000+0  43098-4 0  9995
2 59445  45.6177 140.4950 0003045 217.9498 142.1170 14.99279756123836
HAWK-9A                 
1 59446U 24066E   26196.18820823  .00000637  00000+0  70238-4 0  9991
2 59446  45.6094 132.4966 0002789 206.3231 153.7509 14.99215365124037
HAWK-9C                 
1 59448U 24066G   26196.12183814  .00000461  00000+0  55927-4 0  9992
2 59448  45.6063 131.9379 0002670 189.5878 170.4953 14.99213753124022
HAWK-8C                 
1 59449U 24066H   26196.16484639  .00000548  00000+0  62883-4 0  9991
2 59449  45.6072 132.9713 0002785 229.6077 130.4561 14.99289555124024
HAWK-9B                 
1 59450U 24066J   26196.18850816  .00000643  00000+0  70670-4 0  9998
2 59450  45.6118 133.4315 0002833 185.1928 174.8924 14.99210219124033
HAWK-10A                
1 60540U 24149CA  26196.18463727  .00000194  00000+0  22039-4 0  9990
2 60540  97.6890 271.6151 0003105   3.5216 356.6027 14.96592377104170
HAWK-10B                
1 60545U 24149CF  26196.18450036  .00000181  00000+0  20881-4 0  9993
2 60545  97.6809 270.9418 0005463  14.5117 345.6260 14.96591270104172
HAWK-10C                
1 60575U 24149DM  26196.18483700  .00000179  00000+0  20689-4 0  9993
2 60575  97.6727 270.2522 0002669 349.5427  10.5739 14.96589898104175
HAWK-11B                
1 62379U 24247C   26196.17039044  .00004266  00000+0  15126-3 0  9993
2 62379  45.0147 136.3162 0002950  21.7181 338.3828 15.30667274 87290
HAWK-11C                
1 62381U 24247E   26195.97415043  .00004231  00000+0  15012-3 0  9996
2 62381  45.0035 136.7229 0003921   7.8484 352.2461 15.30661768 87264
HAWK-11A                
1 62382U 24247F   26195.97423961  .00004143  00000+0  14724-3 0  9996
2 62382  44.9928 136.0515 0003369   8.0681 352.0257 15.30657917 87265
HAWK-12C                
1 64621U 25138A   26195.98603179  .00002164  00000+0  10821-3 0  9991
2 64621  97.4348 197.9612 0015260  52.1188 308.1424 15.18405053 58085
HAWK-12B                
1 64622U 25138B   26195.98620565  .00002183  00000+0  10918-3 0  9998
2 64622  97.4471 198.6547 0014182  47.9359 312.3079 15.18404552 58088
