{"fetched_at":"2026-07-15T17:47:12.281Z","source":"https://celestrak.org/NORAD/elements/gp.php?NAME=HAWK&FORMAT=JSON","constellation":"hawkeye-360","records":[{"OBJECT_NAME":"HAWK-7B","OBJECT_ID":"2023-054R","EPOCH":"2026-07-15T03:33:06.064704","CLASSIFICATION_TYPE":"U","MEAN_MOTION":15.27630278,"ECCENTRICITY":0.0001315,"INCLINATION":97.269,"RA_OF_ASC_NODE":81.0483,"ARG_OF_PERICENTER":17.2698,"MEAN_ANOMALY":342.8586,"EPHEMERIS_TYPE":0,"NORAD_CAT_ID":56193,"ELEMENT_SET_NO":999,"REV_AT_EPOCH":18129,"BSTAR":0.00011457,"MEAN_MOTION_DOT":0.00003022,"MEAN_MOTION_DDOT":0},{"OBJECT_NAME":"HAWK-7C","OBJECT_ID":"2023-054Y","EPOCH":"2026-07-15T03:32:55.428864","CLASSIFICATION_TYPE":"U","MEAN_MOTION":15.27632872,"ECCENTRICITY":0.0000929,"INCLINATION":97.2666,"RA_OF_ASC_NODE":81.8085,"ARG_OF_PERICENTER":355.9944,"MEAN_ANOMALY":4.1288,"EPHEMERIS_TYPE":0,"NORAD_CAT_ID":56200,"ELEMENT_SET_NO":999,"REV_AT_EPOCH":18129,"BSTAR":0.00011138,"MEAN_MOTION_DOT":0.00002936,"MEAN_MOTION_DDOT":0},{"OBJECT_NAME":"HAWK-8A","OBJECT_ID":"2024-066B","EPOCH":"2026-07-15T03:57:28.288800","CLASSIFICATION_TYPE":"U","MEAN_MOTION":14.99286735,"ECCENTRICITY":0.0002968,"INCLINATION":45.5953,"RA_OF_ASC_NODE":131.9733,"ARG_OF_PERICENTER":218.9645,"MEAN_ANOMALY":141.1022,"EPHEMERIS_TYPE":0,"NORAD_CAT_ID":59443,"ELEMENT_SET_NO":999,"REV_AT_EPOCH":12403,"BSTAR":0.000069522,"MEAN_MOTION_DOT":0.0000063,"MEAN_MOTION_DDOT":0},{"OBJECT_NAME":"HAWK-8B","OBJECT_ID":"2024-066D","EPOCH":"2026-07-13T21:35:05.404704","CLASSIFICATION_TYPE":"U","MEAN_MOTION":14.99279756,"ECCENTRICITY":0.00030452,"INCLINATION":45.6177,"RA_OF_ASC_NODE":140.495,"ARG_OF_PERICENTER":217.9498,"MEAN_ANOMALY":142.117,"EPHEMERIS_TYPE":0,"NORAD_CAT_ID":59445,"ELEMENT_SET_NO":999,"REV_AT_EPOCH":12383,"BSTAR":0.000043097792,"MEAN_MOTION_DOT":0.00000303,"MEAN_MOTION_DDOT":0},{"OBJECT_NAME":"HAWK-9A","OBJECT_ID":"2024-066E","EPOCH":"2026-07-15T04:31:01.191072","CLASSIFICATION_TYPE":"U","MEAN_MOTION":14.99215365,"ECCENTRICITY":0.0002789,"INCLINATION":45.6094,"RA_OF_ASC_NODE":132.4966,"ARG_OF_PERICENTER":206.3231,"MEAN_ANOMALY":153.7509,"EPHEMERIS_TYPE":0,"NORAD_CAT_ID":59446,"ELEMENT_SET_NO":999,"REV_AT_EPOCH":12403,"BSTAR":0.000070238,"MEAN_MOTION_DOT":0.00000637,"MEAN_MOTION_DDOT":0},{"OBJECT_NAME":"HAWK-9C","OBJECT_ID":"2024-066G","EPOCH":"2026-07-15T02:55:26.815296","CLASSIFICATION_TYPE":"U","MEAN_MOTION":14.99213753,"ECCENTRICITY":0.000267,"INCLINATION":45.6063,"RA_OF_ASC_NODE":131.9379,"ARG_OF_PERICENTER":189.5878,"MEAN_ANOMALY":170.4953,"EPHEMERIS_TYPE":0,"NORAD_CAT_ID":59448,"ELEMENT_SET_NO":999,"REV_AT_EPOCH":12402,"BSTAR":0.000055927,"MEAN_MOTION_DOT":0.00000461,"MEAN_MOTION_DDOT":0},{"OBJECT_NAME":"HAWK-8C","OBJECT_ID":"2024-066H","EPOCH":"2026-07-15T03:57:22.728096","CLASSIFICATION_TYPE":"U","MEAN_MOTION":14.99289555,"ECCENTRICITY":0.0002785,"INCLINATION":45.6072,"RA_OF_ASC_NODE":132.9713,"ARG_OF_PERICENTER":229.6077,"MEAN_ANOMALY":130.4561,"EPHEMERIS_TYPE":0,"NORAD_CAT_ID":59449,"ELEMENT_SET_NO":999,"REV_AT_EPOCH":12402,"BSTAR":0.000062883,"MEAN_MOTION_DOT":0.00000548,"MEAN_MOTION_DDOT":0},{"OBJECT_NAME":"HAWK-9B","OBJECT_ID":"2024-066J","EPOCH":"2026-07-15T04:31:27.105024","CLASSIFICATION_TYPE":"U","MEAN_MOTION":14.99210219,"ECCENTRICITY":0.0002833,"INCLINATION":45.6118,"RA_OF_ASC_NODE":133.4315,"ARG_OF_PERICENTER":185.1928,"MEAN_ANOMALY":174.8924,"EPHEMERIS_TYPE":0,"NORAD_CAT_ID":59450,"ELEMENT_SET_NO":999,"REV_AT_EPOCH":12403,"BSTAR":0.00007067,"MEAN_MOTION_DOT":0.00000643,"MEAN_MOTION_DDOT":0},{"OBJECT_NAME":"HAWK-10A","OBJECT_ID":"2024-149CA","EPOCH":"2026-07-15T04:25:52.660128","CLASSIFICATION_TYPE":"U","MEAN_MOTION":14.96592377,"ECCENTRICITY":0.0003105,"INCLINATION":97.689,"RA_OF_ASC_NODE":271.6151,"ARG_OF_PERICENTER":3.5216,"MEAN_ANOMALY":356.6027,"EPHEMERIS_TYPE":0,"NORAD_CAT_ID":60540,"ELEMENT_SET_NO":999,"REV_AT_EPOCH":10417,"BSTAR":0.000022039,"MEAN_MOTION_DOT":0.00000194,"MEAN_MOTION_DDOT":0},{"OBJECT_NAME":"HAWK-10B","OBJECT_ID":"2024-149CF","EPOCH":"2026-07-15T04:25:40.831104","CLASSIFICATION_TYPE":"U","MEAN_MOTION":14.9659127,"ECCENTRICITY":0.0005463,"INCLINATION":97.6809,"RA_OF_ASC_NODE":270.9418,"ARG_OF_PERICENTER":14.5117,"MEAN_ANOMALY":345.626,"EPHEMERIS_TYPE":0,"NORAD_CAT_ID":60545,"ELEMENT_SET_NO":999,"REV_AT_EPOCH":10417,"BSTAR":0.000020881,"MEAN_MOTION_DOT":0.00000181,"MEAN_MOTION_DDOT":0},{"OBJECT_NAME":"HAWK-10C","OBJECT_ID":"2024-149DM","EPOCH":"2026-07-15T04:26:09.916800","CLASSIFICATION_TYPE":"U","MEAN_MOTION":14.96589898,"ECCENTRICITY":0.0002669,"INCLINATION":97.6727,"RA_OF_ASC_NODE":270.2522,"ARG_OF_PERICENTER":349.5427,"MEAN_ANOMALY":10.5739,"EPHEMERIS_TYPE":0,"NORAD_CAT_ID":60575,"ELEMENT_SET_NO":999,"REV_AT_EPOCH":10417,"BSTAR":0.000020689,"MEAN_MOTION_DOT":0.00000179,"MEAN_MOTION_DDOT":0},{"OBJECT_NAME":"HAWK-11B","OBJECT_ID":"2024-247C","EPOCH":"2026-07-15T04:05:21.734016","CLASSIFICATION_TYPE":"U","MEAN_MOTION":15.30667274,"ECCENTRICITY":0.000295,"INCLINATION":45.0147,"RA_OF_ASC_NODE":136.3162,"ARG_OF_PERICENTER":21.7181,"MEAN_ANOMALY":338.3828,"EPHEMERIS_TYPE":0,"NORAD_CAT_ID":62379,"ELEMENT_SET_NO":999,"REV_AT_EPOCH":8729,"BSTAR":0.00015126,"MEAN_MOTION_DOT":0.00004266,"MEAN_MOTION_DDOT":0},{"OBJECT_NAME":"HAWK-11C","OBJECT_ID":"2024-247E","EPOCH":"2026-07-14T23:22:46.597152","CLASSIFICATION_TYPE":"U","MEAN_MOTION":15.30661768,"ECCENTRICITY":0.0003921,"INCLINATION":45.0035,"RA_OF_ASC_NODE":136.7229,"ARG_OF_PERICENTER":7.8484,"MEAN_ANOMALY":352.2461,"EPHEMERIS_TYPE":0,"NORAD_CAT_ID":62381,"ELEMENT_SET_NO":999,"REV_AT_EPOCH":8726,"BSTAR":0.00015012,"MEAN_MOTION_DOT":0.00004231,"MEAN_MOTION_DDOT":0},{"OBJECT_NAME":"HAWK-11A","OBJECT_ID":"2024-247F","EPOCH":"2026-07-14T23:22:54.302304","CLASSIFICATION_TYPE":"U","MEAN_MOTION":15.30657917,"ECCENTRICITY":0.0003369,"INCLINATION":44.9928,"RA_OF_ASC_NODE":136.0515,"ARG_OF_PERICENTER":8.0681,"MEAN_ANOMALY":352.0257,"EPHEMERIS_TYPE":0,"NORAD_CAT_ID":62382,"ELEMENT_SET_NO":999,"REV_AT_EPOCH":8726,"BSTAR":0.00014724,"MEAN_MOTION_DOT":0.00004143,"MEAN_MOTION_DDOT":0},{"OBJECT_NAME":"HAWK-12C","OBJECT_ID":"2025-138A","EPOCH":"2026-07-14T23:39:53.146656","CLASSIFICATION_TYPE":"U","MEAN_MOTION":15.18405053,"ECCENTRICITY":0.001526,"INCLINATION":97.4348,"RA_OF_ASC_NODE":197.9612,"ARG_OF_PERICENTER":52.1188,"MEAN_ANOMALY":308.1424,"EPHEMERIS_TYPE":0,"NORAD_CAT_ID":64621,"ELEMENT_SET_NO":999,"REV_AT_EPOCH":5808,"BSTAR":0.00010821,"MEAN_MOTION_DOT":0.00002164,"MEAN_MOTION_DDOT":0},{"OBJECT_NAME":"HAWK-12B","OBJECT_ID":"2025-138B","EPOCH":"2026-07-14T23:40:08.168160","CLASSIFICATION_TYPE":"U","MEAN_MOTION":15.18404552,"ECCENTRICITY":0.0014182,"INCLINATION":97.4471,"RA_OF_ASC_NODE":198.6547,"ARG_OF_PERICENTER":47.9359,"MEAN_ANOMALY":312.3079,"EPHEMERIS_TYPE":0,"NORAD_CAT_ID":64622,"ELEMENT_SET_NO":999,"REV_AT_EPOCH":5808,"BSTAR":0.00010918,"MEAN_MOTION_DOT":0.00002183,"MEAN_MOTION_DDOT":0}]}
